{
  "type": "FeatureCollection",
  "features": [
    {
      "type": "Feature",
      "properties": {
        "norad_id": 38857,
        "name": "GSAT0103 (GALILEO-FM3)",
        "group": "gnss",
        "lat": -24.591881114689606,
        "lon": 88.20990607182524,
        "alt_km": 23221.37891110759,
        "timestamp": "2025-12-22T20:43:46.091402+00:00",
        "meta_object_name": "GSAT0103 (GALILEO-FM3)",
        "meta_object_id": "2012-055A",
        "meta_epoch": "2025-12-18T05:17:11.481792",
        "meta_mean_motion": 1.70473412,
        "meta_eccentricity": 0.00028558,
        "meta_inclination": 55.6954,
        "meta_ra_of_asc_node": 106.5161,
        "meta_arg_of_pericenter": 269.0808,
        "meta_mean_anomaly": 90.8455,
        "meta_ephemeris_type": 0,
        "meta_classification_type": "U",
        "meta_norad_cat_id": 38857,
        "meta_element_set_no": 999,
        "meta_rev_at_epoch": 8192,
        "meta_bstar": 0,
        "meta_mean_motion_dot": -7e-08,
        "meta_mean_motion_ddot": 0,
        "tle_line1": "1 38857U 12055A   25352.22027178 -.00000007  00000+0  00000+0 0  9996",
        "tle_line2": "2 38857  55.6954 106.5161 0002855 269.0808  90.8455  1.70473412 81920"
      },
      "geometry": {
        "type": "Point",
        "coordinates": [
          88.20990607182524,
          -24.591881114689606
        ]
      }
    },
    {
      "type": "Feature",
      "properties": {
        "norad_id": 38953,
        "name": "BEIDOU-2 G6 (C02)",
        "group": "gnss",
        "lat": 3.1181289901221523,
        "lon": 126.53534137794357,
        "alt_km": 35803.3933487918,
        "timestamp": "2025-12-22T20:43:46.091414+00:00",
        "meta_object_name": "BEIDOU-2 G6 (C02)",
        "meta_object_id": "2012-059A",
        "meta_epoch": "2025-12-22T13:33:52.129152",
        "meta_mean_motion": 1.00268516,
        "meta_eccentricity": 0.00083054,
        "meta_inclination": 3.9727,
        "meta_ra_of_asc_node": 75.4106,
        "meta_arg_of_pericenter": 292.315,
        "meta_mean_anomaly": 11.0325,
        "meta_ephemeris_type": 0,
        "meta_classification_type": "U",
        "meta_norad_cat_id": 38953,
        "meta_element_set_no": 999,
        "meta_rev_at_epoch": 4813,
        "meta_bstar": 0,
        "meta_mean_motion_dot": -1.55e-06,
        "meta_mean_motion_ddot": 0,
        "tle_line1": "1 38953U 12059A   25356.56518668 -.00000155  00000+0  00000+0 0  9991",
        "tle_line2": "2 38953   3.9727  75.4106 0008305 292.3150  11.0325  1.00268516 48136"
      },
      "geometry": {
        "type": "Point",
        "coordinates": [
          126.53534137794357,
          3.1181289901221523
        ]
      }
    },
    {
      "type": "Feature",
      "properties": {
        "norad_id": 38977,
        "name": "LUCH 5B (SDCM/PRN 125)",
        "group": "gnss",
        "lat": -4.298540523663384,
        "lon": 26.667610469605197,
        "alt_km": 35807.420000937615,
        "timestamp": "2025-12-22T20:43:46.091426+00:00",
        "meta_object_name": "LUCH 5B (SDCM/PRN 125)",
        "meta_object_id": "2012-061A",
        "meta_epoch": "2025-12-22T10:31:38.602272",
        "meta_mean_motion": 1.00272156,
        "meta_eccentricity": 0.00065717,
        "meta_inclination": 10.1007,
        "meta_ra_of_asc_node": 51.6126,
        "meta_arg_of_pericenter": 195.8648,
        "meta_mean_anomaly": 345.3504,
        "meta_ephemeris_type": 0,
        "meta_classification_type": "U",
        "meta_norad_cat_id": 38977,
        "meta_element_set_no": 999,
        "meta_rev_at_epoch": 4783,
        "meta_bstar": 0,
        "meta_mean_motion_dot": -1.21e-06,
        "meta_mean_motion_ddot": 0,
        "tle_line1": "1 38977U 12061A   25356.43864123 -.00000121  00000+0  00000+0 0  9999",
        "tle_line2": "2 38977  10.1007  51.6126 0006571 195.8648 345.3504  1.00272156 47836"
      },
      "geometry": {
        "type": "Point",
        "coordinates": [
          26.667610469605197,
          -4.298540523663384
        ]
      }
    },
    {
      "type": "Feature",
      "properties": {
        "norad_id": 39155,
        "name": "COSMOS 2485 (747)",
        "group": "gnss",
        "lat": -49.57070788089855,
        "lon": 46.934604084840835,
        "alt_km": 19116.668697862977,
        "timestamp": "2025-12-22T20:43:46.091437+00:00",
        "meta_object_name": "COSMOS 2485 (747)",
        "meta_object_id": "2013-019A",
        "meta_epoch": "2025-12-22T11:14:56.161248",
        "meta_mean_motion": 2.13103249,
        "meta_eccentricity": 0.00249404,
        "meta_inclination": 65.3184,
        "meta_ra_of_asc_node": 79.5401,
        "meta_arg_of_pericenter": 230.2893,
        "meta_mean_anomaly": 129.5337,
        "meta_ephemeris_type": 0,
        "meta_classification_type": "U",
        "meta_norad_cat_id": 39155,
        "meta_element_set_no": 999,
        "meta_rev_at_epoch": 9851,
        "meta_bstar": 0,
        "meta_mean_motion_dot": -2e-08,
        "meta_mean_motion_ddot": 0,
        "tle_line1": "1 39155U 13019A   25356.46870557 -.00000002  00000+0  00000+0 0  9991",
        "tle_line2": "2 39155  65.3184  79.5401 0024940 230.2893 129.5337  2.13103249 98512"
      },
      "geometry": {
        "type": "Point",
        "coordinates": [
          46.934604084840835,
          -49.57070788089855
        ]
      }
    },
    {
      "type": "Feature",
      "properties": {
        "norad_id": 39166,
        "name": "GPS BIIF-4  (PRN 27)",
        "group": "gnss",
        "lat": 38.279152697186085,
        "lon": 62.13104805913379,
        "alt_km": 20120.618912124235,
        "timestamp": "2025-12-22T20:43:46.091448+00:00",
        "meta_object_name": "GPS BIIF-4  (PRN 27)",
        "meta_object_id": "2013-023A",
        "meta_epoch": "2025-12-22T04:30:56.781216",
        "meta_mean_motion": 2.00564649,
        "meta_eccentricity": 0.01384833,
        "meta_inclination": 54.6439,
        "meta_ra_of_asc_node": 276.1841,
        "meta_arg_of_pericenter": 48.7288,
        "meta_mean_anomaly": 312.4984,
        "meta_ephemeris_type": 0,
        "meta_classification_type": "U",
        "meta_norad_cat_id": 39166,
        "meta_element_set_no": 999,
        "meta_rev_at_epoch": 9233,
        "meta_bstar": 0,
        "meta_mean_motion_dot": -1.5e-07,
        "meta_mean_motion_ddot": 0,
        "tle_line1": "1 39166U 13023A   25356.18815719 -.00000015  00000+0  00000+0 0  9990",
        "tle_line2": "2 39166  54.6439 276.1841 0138483  48.7288 312.4984  2.00564649 92335"
      },
      "geometry": {
        "type": "Point",
        "coordinates": [
          62.13104805913379,
          38.279152697186085
        ]
      }
    },
    {
      "type": "Feature",
      "properties": {
        "norad_id": 39199,
        "name": "IRNSS-1A",
        "group": "gnss",
        "lat": 17.34001072725736,
        "lon": 92.52994649759518,
        "alt_km": 35887.86325055362,
        "timestamp": "2025-12-22T20:43:46.091460+00:00",
        "meta_object_name": "IRNSS-1A",
        "meta_object_id": "2013-034A",
        "meta_epoch": "2025-12-21T18:47:21.670944",
        "meta_mean_motion": 1.00272672,
        "meta_eccentricity": 0.00246242,
        "meta_inclination": 35.3337,
        "meta_ra_of_asc_node": 66.4206,
        "meta_arg_of_pericenter": 215.0235,
        "meta_mean_anomaly": 145.8016,
        "meta_ephemeris_type": 0,
        "meta_classification_type": "U",
        "meta_norad_cat_id": 39199,
        "meta_element_set_no": 999,
        "meta_rev_at_epoch": 4559,
        "meta_bstar": 0,
        "meta_mean_motion_dot": 7.3e-07,
        "meta_mean_motion_ddot": 0,
        "tle_line1": "1 39199U 13034A   25355.78288971  .00000073  00000+0  00000+0 0  9990",
        "tle_line2": "2 39199  35.3337  66.4206 0024624 215.0235 145.8016  1.00272672 45592"
      },
      "geometry": {
        "type": "Point",
        "coordinates": [
          92.52994649759518,
          17.34001072725736
        ]
      }
    },
    {
      "type": "Feature",
      "properties": {
        "norad_id": 39533,
        "name": "GPS BIIF-5  (PRN 30)",
        "group": "gnss",
        "lat": 37.725216364507745,
        "lon": -58.23850595993878,
        "alt_km": 20198.03783552788,
        "timestamp": "2025-12-22T20:43:46.091471+00:00",
        "meta_object_name": "GPS BIIF-5  (PRN 30)",
        "meta_object_id": "2014-008A",
        "meta_epoch": "2025-12-20T16:28:24.690432",
        "meta_mean_motion": 2.00548724,
        "meta_eccentricity": 0.00795742,
        "meta_inclination": 53.6246,
        "meta_ra_of_asc_node": 156.6308,
        "meta_arg_of_pericenter": 226.1122,
        "meta_mean_anomaly": 133.2164,
        "meta_ephemeris_type": 0,
        "meta_classification_type": "U",
        "meta_norad_cat_id": 39533,
        "meta_element_set_no": 999,
        "meta_rev_at_epoch": 8610,
        "meta_bstar": 0,
        "meta_mean_motion_dot": 6.5e-07,
        "meta_mean_motion_ddot": 0,
        "tle_line1": "1 39533U 14008A   25354.68639688  .00000065  00000+0  00000+0 0  9998",
        "tle_line2": "2 39533  53.6246 156.6308 0079574 226.1122 133.2164  2.00548724 86105"
      },
      "geometry": {
        "type": "Point",
        "coordinates": [
          -58.23850595993878,
          37.725216364507745
        ]
      }
    }
  ]
}